ALOS-2                  
1 39766U 14029A   26091.98446175  .00000538  00000+0  78893-4 0  9993
2 39766  97.9198 190.2433 0002008 101.0239 259.1199 14.79462785640317
YAOGAN-29               
1 41038U 15069A   26092.00469983 -.00000014  00000+0  49806-5 0  9992
2 41038  98.0108 120.4934 0000143 348.4679  11.6531 14.83019350559332
ASTRO-H (HITOMI)        
1 41337U 16012A   26091.63669912  .00003587  00000+0  20868-3 0  9997
2 41337  30.9992 208.4476 0009659 202.6657 157.3555 15.10152335555709
HXMT (HUIYAN)           
1 42758U 17034A   26091.87923378  .00006469  00000+0  32218-3 0  9999
2 42758  43.0134 247.7186 0031300  19.1005 341.1010 15.17758304486066
SAOCOM 1A               
1 43641U 18076A   26091.98412716 -.00000344  00000+0 -36611-4 0  9999
2 43641  97.8898 279.8281 0001366  86.2058 273.9311 14.82144173404819
H-2A R/B                
1 43682U 18084L   26091.18779370  .00018870  00000+0  43581-3 0  9991
2 43682  98.8700 313.3988 0023507 306.3863  53.5211 15.42318515409249
SAOCOM 1B               
1 46265U 20059A   26091.94786720  .00001512  00000+0  19643-3 0  9994
2 46265  97.8886 278.8893 0001476  85.2335 274.9046 14.82148849302196
CSS (TIANHE)            
1 48274U 21035A   26091.36022109  .00024066  00000+0  27286-3 0  9992
2 48274  41.4670  70.0996 0003721  85.9086 274.2179 15.61804306281152
COSMOS 2550             
1 48865U 21056A   26091.47039022  .00005639  00000+0  17705-3 0  9995
2 48865  67.1445 331.9738 0008328 269.3207  90.6993 15.33839536266954
CZ-2C R/B               
1 52794U 22058K   26091.58083286  .00043661  00000+0  59540-3 0  9997
2 52794  50.1881 200.3863 0041330 299.0451  60.6383 15.55999580213698
CZ-2C R/B               
1 54039U 22132E   26091.93297412  .00049340  00000+0  51772-3 0  9990
2 54039  97.2951  95.9934 0016612  13.9860 346.1855 15.64056213194007
GSLV R/B                
1 54149U 22138AN  26091.18318274  .00003021  00000+0  25929-3 0  9996
2 54149  87.3855 158.8315 0023939  72.6423 287.7425 14.96915376187295
